[{"OBJECT_NAME":"STARLINK-5726","OBJECT_ID":"2023-020AR","EPOCH":"2025-09-08T02:46:33.026592","MEAN_MOTION":15.02545813,"ECCENTRICITY":0.00012864,"INCLINATION":43.0041,"RA_OF_ASC_NODE":263.8787,"ARG_OF_PERICENTER":275.1474,"MEAN_ANOMALY":84.9221,"EPHEMERIS_TYPE":0,"CLASSIFICATION_TYPE":"U","NORAD_CAT_ID":55608,"ELEMENT_SET_NO":999,"REV_AT_EPOCH":14160,"BSTAR":4.3577445e-5,"MEAN_MOTION_DOT":3.85e-6,"MEAN_MOTION_DDOT":0},{"OBJECT_NAME":"STARLINK-5719","OBJECT_ID":"2023-020AS","EPOCH":"2025-09-08T01:18:48.837024","MEAN_MOTION":15.02534524,"ECCENTRICITY":0.00013907,"INCLINATION":43.0038,"RA_OF_ASC_NODE":264.2765,"ARG_OF_PERICENTER":267.1338,"MEAN_ANOMALY":92.9345,"EPHEMERIS_TYPE":0,"CLASSIFICATION_TYPE":"U","NORAD_CAT_ID":55609,"ELEMENT_SET_NO":999,"REV_AT_EPOCH":14159,"BSTAR":-3.2266548e-5,"MEAN_MOTION_DOT":-6.39e-6,"MEAN_MOTION_DDOT":0},{"OBJECT_NAME":"STARLINK-5722","OBJECT_ID":"2023-020AT","EPOCH":"2025-09-08T00:59:38.114304","MEAN_MOTION":15.0253623,"ECCENTRICITY":0.00011997,"INCLINATION":43.0032,"RA_OF_ASC_NODE":264.179,"ARG_OF_PERICENTER":270.3811,"MEAN_ANOMALY":89.6894,"EPHEMERIS_TYPE":0,"CLASSIFICATION_TYPE":"U","NORAD_CAT_ID":55610,"ELEMENT_SET_NO":999,"REV_AT_EPOCH":14159,"BSTAR":-9.296788e-6,"MEAN_MOTION_DOT":-3.29e-6,"MEAN_MOTION_DDOT":0},{"OBJECT_NAME":"STARLINK-5730","OBJECT_ID":"2023-020AU","EPOCH":"2025-09-08T02:32:10.079808","MEAN_MOTION":15.02534674,"ECCENTRICITY":0.00011722,"INCLINATION":43.0032,"RA_OF_ASC_NODE":263.8036,"ARG_OF_PERICENTER":273.2963,"MEAN_ANOMALY":86.7745,"EPHEMERIS_TYPE":0,"CLASSIFICATION_TYPE":"U","NORAD_CAT_ID":55611,"ELEMENT_SET_NO":999,"REV_AT_EPOCH":14160,"BSTAR":-1.1379857e-5,"MEAN_MOTION_DOT":-3.57e-6,"MEAN_MOTION_DDOT":0},{"OBJECT_NAME":"STARLINK-5734","OBJECT_ID":"2023-020AV","EPOCH":"2025-09-08T02:30:33.987456","MEAN_MOTION":15.02534769,"ECCENTRICITY":0.00012779,"INCLINATION":43.0034,"RA_OF_ASC_NODE":263.7948,"ARG_OF_PERICENTER":266.8538,"MEAN_ANOMALY":93.2158,"EPHEMERIS_TYPE":0,"CLASSIFICATION_TYPE":"U","NORAD_CAT_ID":55612,"ELEMENT_SET_NO":999,"REV_AT_EPOCH":14160,"BSTAR":-1.849552e-6,"MEAN_MOTION_DOT":-2.29e-6,"MEAN_MOTION_DDOT":0},{"OBJECT_NAME":"STARLINK-5715","OBJECT_ID":"2023-020AW","EPOCH":"2025-09-07T09:08:44.653632","MEAN_MOTION":15.02535947,"ECCENTRICITY":0.0001257,"INCLINATION":43.0025,"RA_OF_ASC_NODE":267.8281,"ARG_OF_PERICENTER":264.1301,"MEAN_ANOMALY":95.9398,"EPHEMERIS_TYPE":0,"CLASSIFICATION_TYPE":"U","NORAD_CAT_ID":55613,"ELEMENT_SET_NO":999,"REV_AT_EPOCH":14149,"BSTAR":-1.050571e-6,"MEAN_MOTION_DOT":-2.18e-6,"MEAN_MOTION_DDOT":0},{"OBJECT_NAME":"STARLINK-5714","OBJECT_ID":"2023-020AX","EPOCH":"2025-09-08T01:01:35.486112","MEAN_MOTION":15.02535679,"ECCENTRICITY":0.00013731,"INCLINATION":43.0021,"RA_OF_ASC_NODE":251.1406,"ARG_OF_PERICENTER":272.1402,"MEAN_ANOMALY":87.9283,"EPHEMERIS_TYPE":0,"CLASSIFICATION_TYPE":"U","NORAD_CAT_ID":55614,"ELEMENT_SET_NO":999,"REV_AT_EPOCH":14174,"BSTAR":1.5599731e-5,"MEAN_MOTION_DOT":7.0e-8,"MEAN_MOTION_DDOT":0},{"OBJECT_NAME":"STARLINK-5712","OBJECT_ID":"2023-020AY","EPOCH":"2025-09-08T02:25:45.513408","MEAN_MOTION":15.02542105,"ECCENTRICITY":0.0001204,"INCLINATION":43.0026,"RA_OF_ASC_NODE":263.771,"ARG_OF_PERICENTER":269.0909,"MEAN_ANOMALY":90.9796,"EPHEMERIS_TYPE":0,"CLASSIFICATION_TYPE":"U","NORAD_CAT_ID":55615,"ELEMENT_SET_NO":999,"REV_AT_EPOCH":14160,"BSTAR":4.7380492e-5,"MEAN_MOTION_DOT":4.37e-6,"MEAN_MOTION_DDOT":0},{"OBJECT_NAME":"STARLINK-5710","OBJECT_ID":"2023-020AZ","EPOCH":"2025-09-07T18:14:21.104736","MEAN_MOTION":15.02531268,"ECCENTRICITY":0.00010658,"INCLINATION":43.003,"RA_OF_ASC_NODE":265.5105,"ARG_OF_PERICENTER":268.9979,"MEAN_ANOMALY":91.0741,"EPHEMERIS_TYPE":0,"CLASSIFICATION_TYPE":"U","NORAD_CAT_ID":55616,"ELEMENT_SET_NO":999,"REV_AT_EPOCH":14155,"BSTAR":-3.7470144e-5,"MEAN_MOTION_DOT":-7.1e-6,"MEAN_MOTION_DDOT":0},{"OBJECT_NAME":"STARLINK-5721","OBJECT_ID":"2023-020BA","EPOCH":"2025-09-08T02:20:58.825248","MEAN_MOTION":15.02541108,"ECCENTRICITY":0.00014286,"INCLINATION":43.0038,"RA_OF_ASC_NODE":263.7439,"ARG_OF_PERICENTER":271.8383,"MEAN_ANOMALY":88.2295,"EPHEMERIS_TYPE":0,"CLASSIFICATION_TYPE":"U","NORAD_CAT_ID":55617,"ELEMENT_SET_NO":999,"REV_AT_EPOCH":14160,"BSTAR":0.00010122035,"MEAN_MOTION_DOT":1.164e-5,"MEAN_MOTION_DDOT":0},{"OBJECT_NAME":"STARLINK-5717","OBJECT_ID":"2023-020BB","EPOCH":"2025-09-08T02:11:23.669088","MEAN_MOTION":15.02546824,"ECCENTRICITY":0.00013309,"INCLINATION":43.0033,"RA_OF_ASC_NODE":263.6944,"ARG_OF_PERICENTER":275.9182,"MEAN_ANOMALY":84.1508,"EPHEMERIS_TYPE":0,"CLASSIFICATION_TYPE":"U","NORAD_CAT_ID":55618,"ELEMENT_SET_NO":999,"REV_AT_EPOCH":14160,"BSTAR":0.00013770692,"MEAN_MOTION_DOT":1.658e-5,"MEAN_MOTION_DDOT":0},{"OBJECT_NAME":"STARLINK-5720","OBJECT_ID":"2023-020BC","EPOCH":"2025-09-08T02:06:35.559648","MEAN_MOTION":15.02536514,"ECCENTRICITY":0.00012092,"INCLINATION":43.0027,"RA_OF_ASC_NODE":263.6691,"ARG_OF_PERICENTER":269.243,"MEAN_ANOMALY":90.8274,"EPHEMERIS_TYPE":0,"CLASSIFICATION_TYPE":"U","NORAD_CAT_ID":55619,"ELEMENT_SET_NO":999,"REV_AT_EPOCH":14160,"BSTAR":3.753922e-6,"MEAN_MOTION_DOT":-1.53e-6,"MEAN_MOTION_DDOT":0},{"OBJECT_NAME":"STARLINK-5718","OBJECT_ID":"2023-020BD","EPOCH":"2025-09-08T02:01:47.824320","MEAN_MOTION":15.02533287,"ECCENTRICITY":0.00012768,"INCLINATION":43.0034,"RA_OF_ASC_NODE":263.642,"ARG_OF_PERICENTER":266.6124,"MEAN_ANOMALY":93.4573,"EPHEMERIS_TYPE":0,"CLASSIFICATION_TYPE":"U","NORAD_CAT_ID":55620,"ELEMENT_SET_NO":999,"REV_AT_EPOCH":14160,"BSTAR":1.9405815e-5,"MEAN_MOTION_DOT":5.9e-7,"MEAN_MOTION_DDOT":0},{"OBJECT_NAME":"STARLINK-5709","OBJECT_ID":"2023-020BE","EPOCH":"2025-09-08T07:04:59.379744","MEAN_MOTION":15.02525449,"ECCENTRICITY":7.962e-5,"INCLINATION":43.0022,"RA_OF_ASC_NODE":262.6437,"ARG_OF_PERICENTER":277.3775,"MEAN_ANOMALY":82.6977,"EPHEMERIS_TYPE":0,"CLASSIFICATION_TYPE":"U","NORAD_CAT_ID":55621,"ELEMENT_SET_NO":999,"REV_AT_EPOCH":14163,"BSTAR":7.079467e-6,"MEAN_MOTION_DOT":-1.08e-6,"MEAN_MOTION_DDOT":0},{"OBJECT_NAME":"STARLINK-5702","OBJECT_ID":"2023-020BF","EPOCH":"2025-09-08T01:58:36.035328","MEAN_MOTION":15.0253414,"ECCENTRICITY":0.00013139,"INCLINATION":43.004,"RA_OF_ASC_NODE":263.6296,"ARG_OF_PERICENTER":269.5986,"MEAN_ANOMALY":90.4705,"EPHEMERIS_TYPE":0,"CLASSIFICATION_TYPE":"U","NORAD_CAT_ID":55622,"ELEMENT_SET_NO":999,"REV_AT_EPOCH":14160,"BSTAR":-9.42058e-6,"MEAN_MOTION_DOT":-3.31e-6,"MEAN_MOTION_DDOT":0},{"OBJECT_NAME":"STARLINK-5698","OBJECT_ID":"2023-020BG","EPOCH":"2025-09-08T01:52:12.519552","MEAN_MOTION":15.02532626,"ECCENTRICITY":0.00013733,"INCLINATION":43.0036,"RA_OF_ASC_NODE":263.5934,"ARG_OF_PERICENTER":268.1582,"MEAN_ANOMALY":91.9103,"EPHEMERIS_TYPE":0,"CLASSIFICATION_TYPE":"U","NORAD_CAT_ID":55623,"ELEMENT_SET_NO":999,"REV_AT_EPOCH":14160,"BSTAR":-1.905999e-6,"MEAN_MOTION_DOT":-2.29e-6,"MEAN_MOTION_DDOT":0}]
