55608,STARLINK-5726,2023,95.84,290.0,+,43.0,Active,1,LEO,USA,USA,Commercial,Communications,Falcon,1 55608U 23020AR  25251.11566003  .00000385  00000+0  43577-4 0  9993,2 55608  43.0041 263.8787 0001286 275.1474  84.9221 15.02545813141608,15.02545813,0.0001286,LEO
55609,STARLINK-5719,2023,95.84,290.0,+,43.0,Active,1,LEO,USA,USA,Commercial,Communications,Falcon,1 55609U 23020AS  25251.05473191 -.00000639  00000+0 -32267-4 0  9990,2 55609  43.0038 264.2765 0001390 267.1338  92.9345 15.02534524141593,15.02534524,0.000139,LEO
55610,STARLINK-5722,2023,95.84,290.0,+,43.0,Active,1,LEO,USA,USA,Commercial,Communications,Falcon,1 55610U 23020AT  25251.04141336 -.00000329  00000+0 -92968-5 0  9995,2 55610  43.0032 264.1790 0001199 270.3811  89.6894 15.02536230141593,15.0253623,0.0001199,LEO
55611,STARLINK-5730,2023,95.84,290.0,+,43.0,Active,1,LEO,USA,USA,Commercial,Communications,Falcon,1 55611U 23020AU  25251.10567222 -.00000357  00000+0 -11380-4 0  9998,2 55611  43.0032 263.8036 0001172 273.2963  86.7745 15.02534674141609,15.02534674,0.0001172,LEO
55612,STARLINK-5734,2023,95.84,290.0,+,43.0,Active,1,LEO,USA,USA,Commercial,Communications,Falcon,1 55612U 23020AV  25251.10456004 -.00000229  00000+0 -18496-5 0  9998,2 55612  43.0034 263.7948 0001277 266.8538  93.2158 15.02534769141601,15.02534769,0.0001277,LEO
55613,STARLINK-5715,2023,95.84,290.0,+,43.0,Active,1,LEO,USA,USA,Commercial,Communications,Falcon,1 55613U 23020AW  25250.38107238 -.00000218  00000+0 -10506-5 0  9992,2 55613  43.0025 267.8281 0001257 264.1301  95.9398 15.02535947141495,15.02535947,0.0001257,LEO
55614,STARLINK-5714,2023,95.84,290.0,+,43.0,Active,1,LEO,USA,USA,Commercial,Communications,Falcon,1 55614U 23020AX  25251.04277183  .00000007  00000+0  15600-4 0  9997,2 55614  43.0021 251.1406 0001373 272.1402  87.9283 15.02535679141741,15.02535679,0.0001373,LEO
55615,STARLINK-5712,2023,95.84,290.0,+,43.0,Active,1,LEO,USA,USA,Commercial,Communications,Falcon,1 55615U 23020AY  25251.10122122  .00000437  00000+0  47380-4 0  9994,2 55615  43.0026 263.7710 0001204 269.0909  90.9796 15.02542105141604,15.02542105,0.0001204,LEO
55616,STARLINK-5710,2023,95.84,290.0,+,43.0,Active,1,LEO,USA,USA,Commercial,Communications,Falcon,1 55616U 23020AZ  25250.75996649 -.00000710  00000+0 -37470-4 0  9993,2 55616  43.0030 265.5105 0001065 268.9979  91.0741 15.02531268141552,15.02531268,0.0001065,LEO
55617,STARLINK-5721,2023,95.84,290.0,+,43.0,Active,1,LEO,USA,USA,Commercial,Communications,Falcon,1 55617U 23020BA  25251.09790307  .00001164  00000+0  10122-3 0  9991,2 55617  43.0038 263.7439 0001428 271.8383  88.2295 15.02541108141608,15.02541108,0.0001428,LEO
55618,STARLINK-5717,2023,95.84,290.0,+,43.0,Active,1,LEO,USA,USA,Commercial,Communications,Falcon,1 55618U 23020BB  25251.09124617  .00001658  00000+0  13771-3 0  9998,2 55618  43.0033 263.6944 0001330 275.9182  84.1508 15.02546824141600,15.02546824,0.000133,LEO
55619,STARLINK-5720,2023,95.84,290.0,+,43.0,Active,1,LEO,USA,USA,Commercial,Communications,Falcon,1 55619U 23020BC  25251.08791157 -.00000153  00000+0  37539-5 0  9997,2 55619  43.0027 263.6691 0001209 269.2430  90.8274 15.02536514141609,15.02536514,0.0001209,LEO
55620,STARLINK-5718,2023,95.84,290.0,+,43.0,Active,1,LEO,USA,USA,Commercial,Communications,Falcon,1 55620U 23020BD  25251.08458130  .00000059  00000+0  19406-4 0  9996,2 55620  43.0034 263.6420 0001276 266.6124  93.4573 15.02533287141609,15.02533287,0.0001276,LEO
55621,STARLINK-5709,2023,95.84,290.0,+,43.0,Active,1,LEO,USA,USA,Commercial,Communications,Falcon,1 55621U 23020BE  25251.29513171 -.00000108  00000+0  70795-5 0  9992,2 55621  43.0022 262.6437 0000796 277.3775  82.6977 15.02525449141633,15.02525449,7.96e-05,LEO
55622,STARLINK-5702,2023,95.84,290.0,+,43.0,Active,1,LEO,USA,USA,Commercial,Communications,Falcon,1 55622U 23020BF  25251.08236152 -.00000331  00000+0 -94206-5 0  9993,2 55622  43.0040 263.6296 0001313 269.5986  90.4705 15.02534140141602,15.0253414,0.0001313,LEO
55623,STARLINK-5698,2023,95.84,290.0,+,43.0,Active,1,LEO,USA,USA,Commercial,Communications,Falcon,1 55623U 23020BG  25251.07792268 -.00000229  00000+0 -19060-5 0  9999,2 55623  43.0036 263.5934 0001373 268.1582  91.9103 15.02532626141604,15.02532626,0.0001373,LEO
